ORBCOMM FM24            
1 25478U 98053D   25057.76723398  .00003059  00000+0  10563-2 0  9998
2 25478  45.0072  72.4856 0002592 326.5235  33.5449 14.37615593381556
ORBCOMM FM25            
1 25479U 98053E   25057.73672340  .00003402  00000+0  11700-2 0  9992
2 25479  45.0064  70.8880 0003456  12.5103 347.5831 14.37596510381845
ORBCOMM FM26            
1 25480U 98053F   25058.51256585  .00002985  00000+0  10504-2 0  9996
2 25480  45.0063  62.9055 0004256  55.2269 304.8979 14.36732740381977
ORBCOMM FM27            
1 25481U 98053G   25058.49047235  .00003551  00000+0  12189-2 0  9995
2 25481  45.0046  67.5536 0002381 295.3938  64.6664 14.37610552381925
ORBCOMM FM28            
1 25482U 98053H   25058.54450627  .00003784  00000+0  12890-2 0  9992
2 25482  45.0066   4.9780 0003041  85.1529 274.9666 14.37866344382740
ORBCOMM FM30            
1 25980U 99065A   25057.95851082  .00002809  00000+0  98802-3 0  9998
2 25980  45.0297 251.3296 0006892 172.8212 187.2735 14.36887585319123
ORBCOMM FM31            
1 25981U 99065B   25057.85841867  .00002730  00000+0  96241-3 0  9996
2 25981  45.0211 245.3285 0004221 193.6015 166.4720 14.36847910318138
ORBCOMM FM32            
1 25982U 99065C   25058.52693313  .00002716  00000+0  97609-3 0  9996
2 25982  45.0142 258.0030 0006040 196.0231 164.0426 14.35895246318961
